ONEWEB-0207             
1 48242U 21031AJ  26098.07370800 -.00000027  00000+0 -10665-3 0  9998
2 48242  87.8948 303.6888 0001420  86.0677 274.0615 13.14502034239083
ONEWEB-0208             
1 48243U 21031AK  26098.28382858 -.00000203  00000+0 -58288-3 0  9997
2 48243  87.8938 303.6579 0001823  78.1781 281.9553 13.14502004239125
ONEWEB-0200             
1 48244U 21031AL  26097.94288135  .00000063  00000+0  13527-3 0  9992
2 48244  87.8935 303.7141 0001627  83.3184 276.8131 13.14502450239003
ONEWEB-0217             
1 48245U 21031AM  26098.26320954  .00000164  00000+0  40906-3 0  9998
2 48245  87.8939 303.6508 0001802  76.5278 283.6053 13.14501542238994
ONEWEB-0211             
1 48767U 21045A   26098.17650828  .00000056  00000+0  11294-3 0  9996
2 48767  87.8935 273.0670 0002218  78.8925 281.2455 13.16192673235232
ONEWEB-0223             
1 48768U 21045B   26098.22052018 -.00000130  00000+0 -37863-3 0  9995
2 48768  87.8937 273.1477 0002120  88.7594 271.3779 13.15547817235204
ONEWEB-0230             
1 48769U 21045C   26098.19199969 -.00000233  00000+0 -65303-3 0  9993
2 48769  87.8931 273.1735 0001698  98.4656 261.6667 13.15548531235462
ONEWEB-0237             
1 48770U 21045D   26097.95273622 -.00000138  00000+0 -40191-3 0  9999
2 48770  87.8932 273.2230 0002032  95.0182 265.1180 13.15548202235156
ONEWEB-0235             
1 48771U 21045E   26097.92737870 -.00000018  00000+0 -80785-4 0  9998
2 48771  87.8937 273.2071 0002164  90.7881 269.3497 13.15548319235144
ONEWEB-0242             
1 48772U 21045F   26098.22526486 -.00000006  00000+0 -49912-4 0  9996
2 48772  87.8937 273.1434 0001890  97.4877 262.6468 13.15548674235228
ONEWEB-0241             
1 48773U 21045G   26098.21259372 -.00000180  00000+0 -51238-3 0  9999
2 48773  87.8926 273.1722 0002030  85.3732 274.7630 13.15548328235131
ONEWEB-0243             
1 48774U 21045H   26098.24429819  .00000118  00000+0  27981-3 0  9995
2 48774  87.8929 273.1773 0002238 101.4532 258.6850 13.15548078235169
ONEWEB-0222             
1 48775U 21045J   26098.22764620  .00000019  00000+0  15069-4 0  9991
2 48775  87.8937 273.1429 0001865  91.0241 269.1103 13.15550180235203
ONEWEB-0244             
1 48776U 21045K   26098.17773983  .00000018  00000+0  14463-4 0  9994
2 48776  87.8939 273.1435 0001870  94.3434 265.7910 13.15548824235760
ONEWEB-0247             
1 48777U 21045L   26098.17457371  .00000042  00000+0  77107-4 0  9996
2 48777  87.8931 273.1861 0002574  96.8452 263.2972 13.15547920235201
ONEWEB-0245             
1 48778U 21045M   26098.24586639 -.00000013  00000+0 -69260-4 0  9996
2 48778  87.8940 273.1444 0001789  86.9041 273.2294 13.15547806235188
