[{"OBJECT_NAME":"ONEWEB-0207","OBJECT_ID":"2021-031AJ","EPOCH":"2026-04-08T01:46:08.371200","MEAN_MOTION":13.14502034,"ECCENTRICITY":0.000142,"INCLINATION":87.8948,"RA_OF_ASC_NODE":303.6888,"ARG_OF_PERICENTER":86.0677,"MEAN_ANOMALY":274.0615,"EPHEMERIS_TYPE":0,"CLASSIFICATION_TYPE":"U","NORAD_CAT_ID":48242,"ELEMENT_SET_NO":999,"REV_AT_EPOCH":23908,"BSTAR":-0.00010664999999999999,"MEAN_MOTION_DOT":-2.7e-07,"MEAN_MOTION_DDOT":0.0},{"OBJECT_NAME":"ONEWEB-0208","OBJECT_ID":"2021-031AK","EPOCH":"2026-04-08T06:48:42.789312","MEAN_MOTION":13.14502004,"ECCENTRICITY":0.0001823,"INCLINATION":87.8938,"RA_OF_ASC_NODE":303.6579,"ARG_OF_PERICENTER":78.1781,"MEAN_ANOMALY":281.9553,"EPHEMERIS_TYPE":0,"CLASSIFICATION_TYPE":"U","NORAD_CAT_ID":48243,"ELEMENT_SET_NO":999,"REV_AT_EPOCH":23912,"BSTAR":-0.0005828799999999999,"MEAN_MOTION_DOT":-2.03e-06,"MEAN_MOTION_DDOT":0.0},{"OBJECT_NAME":"ONEWEB-0200","OBJECT_ID":"2021-031AL","EPOCH":"2026-04-07T22:37:44.948640","MEAN_MOTION":13.1450245,"ECCENTRICITY":0.0001627,"INCLINATION":87.8935,"RA_OF_ASC_NODE":303.7141,"ARG_OF_PERICENTER":83.3184,"MEAN_ANOMALY":276.8131,"EPHEMERIS_TYPE":0,"CLASSIFICATION_TYPE":"U","NORAD_CAT_ID":48244,"ELEMENT_SET_NO":999,"REV_AT_EPOCH":23900,"BSTAR":0.00013527,"MEAN_MOTION_DOT":6.3e-07,"MEAN_MOTION_DDOT":0.0},{"OBJECT_NAME":"ONEWEB-0217","OBJECT_ID":"2021-031AM","EPOCH":"2026-04-08T06:19:01.304256","MEAN_MOTION":13.14501542,"ECCENTRICITY":0.0001802,"INCLINATION":87.8939,"RA_OF_ASC_NODE":303.6508,"ARG_OF_PERICENTER":76.5278,"MEAN_ANOMALY":283.6053,"EPHEMERIS_TYPE":0,"CLASSIFICATION_TYPE":"U","NORAD_CAT_ID":48245,"ELEMENT_SET_NO":999,"REV_AT_EPOCH":23899,"BSTAR":0.00040906,"MEAN_MOTION_DOT":1.64e-06,"MEAN_MOTION_DDOT":0.0},{"OBJECT_NAME":"ONEWEB-0211","OBJECT_ID":"2021-045A","EPOCH":"2026-04-08T04:14:10.315392","MEAN_MOTION":13.16192673,"ECCENTRICITY":0.0002218,"INCLINATION":87.8935,"RA_OF_ASC_NODE":273.067,"ARG_OF_PERICENTER":78.8925,"MEAN_ANOMALY":281.2455,"EPHEMERIS_TYPE":0,"CLASSIFICATION_TYPE":"U","NORAD_CAT_ID":48767,"ELEMENT_SET_NO":999,"REV_AT_EPOCH":23523,"BSTAR":0.00011294,"MEAN_MOTION_DOT":5.6e-07,"MEAN_MOTION_DDOT":0.0},{"OBJECT_NAME":"ONEWEB-0223","OBJECT_ID":"2021-045B","EPOCH":"2026-04-08T05:17:32.943552","MEAN_MOTION":13.15547817,"ECCENTRICITY":0.000212,"INCLINATION":87.8937,"RA_OF_ASC_NODE":273.1477,"ARG_OF_PERICENTER":88.7594,"MEAN_ANOMALY":271.3779,"EPHEMERIS_TYPE":0,"CLASSIFICATION_TYPE":"U","NORAD_CAT_ID":48768,"ELEMENT_SET_NO":999,"REV_AT_EPOCH":23520,"BSTAR":-0.00037863,"MEAN_MOTION_DOT":-1.3e-06,"MEAN_MOTION_DDOT":0.0},{"OBJECT_NAME":"ONEWEB-0230","OBJECT_ID":"2021-045C","EPOCH":"2026-04-08T04:36:28.773216","MEAN_MOTION":13.15548531,"ECCENTRICITY":0.0001698,"INCLINATION":87.8931,"RA_OF_ASC_NODE":273.1735,"ARG_OF_PERICENTER":98.4656,"MEAN_ANOMALY":261.6667,"EPHEMERIS_TYPE":0,"CLASSIFICATION_TYPE":"U","NORAD_CAT_ID":48769,"ELEMENT_SET_NO":999,"REV_AT_EPOCH":23546,"BSTAR":-0.00065303,"MEAN_MOTION_DOT":-2.33e-06,"MEAN_MOTION_DDOT":0.0},{"OBJECT_NAME":"ONEWEB-0237","OBJECT_ID":"2021-045D","EPOCH":"2026-04-07T22:51:56.409408","MEAN_MOTION":13.15548202,"ECCENTRICITY":0.0002032,"INCLINATION":87.8932,"RA_OF_ASC_NODE":273.223,"ARG_OF_PERICENTER":95.0182,"MEAN_ANOMALY":265.118,"EPHEMERIS_TYPE":0,"CLASSIFICATION_TYPE":"U","NORAD_CAT_ID":48770,"ELEMENT_SET_NO":999,"REV_AT_EPOCH":23515,"BSTAR":-0.00040191,"MEAN_MOTION_DOT":-1.38e-06,"MEAN_MOTION_DDOT":0.0},{"OBJECT_NAME":"ONEWEB-0235","OBJECT_ID":"2021-045E","EPOCH":"2026-04-07T22:15:25.519680","MEAN_MOTION":13.15548319,"ECCENTRICITY":0.0002164,"INCLINATION":87.8937,"RA_OF_ASC_NODE":273.2071,"ARG_OF_PERICENTER":90.7881,"MEAN_ANOMALY":269.3497,"EPHEMERIS_TYPE":0,"CLASSIFICATION_TYPE":"U","NORAD_CAT_ID":48771,"ELEMENT_SET_NO":999,"REV_AT_EPOCH":23514,"BSTAR":-8.078499999999999e-05,"MEAN_MOTION_DOT":-1.8e-07,"MEAN_MOTION_DDOT":0.0},{"OBJECT_NAME":"ONEWEB-0242","OBJECT_ID":"2021-045F","EPOCH":"2026-04-08T05:24:22.883904","MEAN_MOTION":13.15548674,"ECCENTRICITY":0.000189,"INCLINATION":87.8937,"RA_OF_ASC_NODE":273.1434,"ARG_OF_PERICENTER":97.4877,"MEAN_ANOMALY":262.6468,"EPHEMERIS_TYPE":0,"CLASSIFICATION_TYPE":"U","NORAD_CAT_ID":48772,"ELEMENT_SET_NO":999,"REV_AT_EPOCH":23522,"BSTAR":-4.9912000000000006e-05,"MEAN_MOTION_DOT":-6e-08,"MEAN_MOTION_DDOT":0.0},{"OBJECT_NAME":"ONEWEB-0241","OBJECT_ID":"2021-045G","EPOCH":"2026-04-08T05:06:08.097408","MEAN_MOTION":13.15548328,"ECCENTRICITY":0.000203,"INCLINATION":87.8926,"RA_OF_ASC_NODE":273.1722,"ARG_OF_PERICENTER":85.3732,"MEAN_ANOMALY":274.763,"EPHEMERIS_TYPE":0,"CLASSIFICATION_TYPE":"U","NORAD_CAT_ID":48773,"ELEMENT_SET_NO":999,"REV_AT_EPOCH":23513,"BSTAR":-0.00051238,"MEAN_MOTION_DOT":-1.8e-06,"MEAN_MOTION_DDOT":0.0},{"OBJECT_NAME":"ONEWEB-0243","OBJECT_ID":"2021-045H","EPOCH":"2026-04-08T05:51:47.363616","MEAN_MOTION":13.15548078,"ECCENTRICITY":0.0002238,"INCLINATION":87.8929,"RA_OF_ASC_NODE":273.1773,"ARG_OF_PERICENTER":101.4532,"MEAN_ANOMALY":258.685,"EPHEMERIS_TYPE":0,"CLASSIFICATION_TYPE":"U","NORAD_CAT_ID":48774,"ELEMENT_SET_NO":999,"REV_AT_EPOCH":23516,"BSTAR":0.00027981,"MEAN_MOTION_DOT":1.18e-06,"MEAN_MOTION_DDOT":0.0},{"OBJECT_NAME":"ONEWEB-0222","OBJECT_ID":"2021-045J","EPOCH":"2026-04-08T05:27:48.631680","MEAN_MOTION":13.1555018,"ECCENTRICITY":0.0001865,"INCLINATION":87.8937,"RA_OF_ASC_NODE":273.1429,"ARG_OF_PERICENTER":91.0241,"MEAN_ANOMALY":269.1103,"EPHEMERIS_TYPE":0,"CLASSIFICATION_TYPE":"U","NORAD_CAT_ID":48775,"ELEMENT_SET_NO":999,"REV_AT_EPOCH":23520,"BSTAR":1.5069e-05,"MEAN_MOTION_DOT":1.9e-07,"MEAN_MOTION_DDOT":0.0},{"OBJECT_NAME":"ONEWEB-0244","OBJECT_ID":"2021-045K","EPOCH":"2026-04-08T04:15:56.721312","MEAN_MOTION":13.15548824,"ECCENTRICITY":0.000187,"INCLINATION":87.8939,"RA_OF_ASC_NODE":273.1435,"ARG_OF_PERICENTER":94.3434,"MEAN_ANOMALY":265.791,"EPHEMERIS_TYPE":0,"CLASSIFICATION_TYPE":"U","NORAD_CAT_ID":48776,"ELEMENT_SET_NO":999,"REV_AT_EPOCH":23576,"BSTAR":1.4463000000000002e-05,"MEAN_MOTION_DOT":1.8e-07,"MEAN_MOTION_DDOT":0.0},{"OBJECT_NAME":"ONEWEB-0247","OBJECT_ID":"2021-045L","EPOCH":"2026-04-08T04:11:23.168544","MEAN_MOTION":13.1554792,"ECCENTRICITY":0.0002574,"INCLINATION":87.8931,"RA_OF_ASC_NODE":273.1861,"ARG_OF_PERICENTER":96.8452,"MEAN_ANOMALY":263.2972,"EPHEMERIS_TYPE":0,"CLASSIFICATION_TYPE":"U","NORAD_CAT_ID":48777,"ELEMENT_SET_NO":999,"REV_AT_EPOCH":23520,"BSTAR":7.7107e-05,"MEAN_MOTION_DOT":4.2e-07,"MEAN_MOTION_DDOT":0.0},{"OBJECT_NAME":"ONEWEB-0245","OBJECT_ID":"2021-045M","EPOCH":"2026-04-08T05:54:02.856096","MEAN_MOTION":13.15547806,"ECCENTRICITY":0.0001789,"INCLINATION":87.894,"RA_OF_ASC_NODE":273.1444,"ARG_OF_PERICENTER":86.9041,"MEAN_ANOMALY":273.2294,"EPHEMERIS_TYPE":0,"CLASSIFICATION_TYPE":"U","NORAD_CAT_ID":48778,"ELEMENT_SET_NO":999,"REV_AT_EPOCH":23518,"BSTAR":-6.926e-05,"MEAN_MOTION_DOT":-1.3e-07,"MEAN_MOTION_DDOT":0.0}]